ONEWEB-0518             
1 54136U 22138Z   26031.82703105 -.00000032  00000+0 -11302-3 0  9999
2 54136  87.9241 332.1207 0001590  78.8524 281.2787 13.19724249158842
ONEWEB-0519             
1 54137U 22138AA  26032.07977072  .00000156  00000+0  35740-3 0  9991
2 54137  87.9255 332.0460 0001888  73.1346 286.9994 13.19726326158882
ONEWEB-0520             
1 54138U 22138AB  26032.11451399 -.00000019  00000+0 -78680-4 0  9997
2 54138  87.9258 332.0451 0001480  77.2694 282.8604 13.19726907158872
ONEWEB-0521             
1 54139U 22138AC  26031.84441717 -.00000063  00000+0 -18935-3 0  9995
2 54139  87.9256 332.0822 0001984  73.9185 286.2166 13.19727445158789
ONEWEB-0522             
1 54140U 22138AD  26031.82386672 -.00000048  00000+0 -15134-3 0  9994
2 54140  87.9254 332.0878 0001619  75.3128 284.8184 13.19728422158823
ONEWEB-0523             
1 54141U 22138AE  26031.74400036 -.00001627  00000+0 -40346-2 0  9993
2 54141  87.9223 301.6671 0002334  82.2481 277.8917 13.20777291161298
ONEWEB-0524             
1 54142U 22138AF  26031.73295944 -.00000086  00000+0 -24279-3 0  9999
2 54142  87.9222 301.6705 0001964 106.5073 253.6276 13.20773330161291
ONEWEB-0525             
1 54143U 22138AG  26032.07028587  .00000117  00000+0  26022-3 0  9996
2 54143  87.9250 332.0558 0001510  77.0336 283.0965 13.19727783158879
ONEWEB-0526             
1 54144U 22138AH  26031.87600632 -.00000053  00000+0 -16374-3 0  9991
2 54144  87.9256 332.0866 0001680  79.7642 280.3680 13.19726717158820
ONEWEB-0529             
1 54145U 22138AJ  26031.87916791 -.00000068  00000+0 -20198-3 0  9993
2 54145  87.9246 332.1078 0001515  78.4044 281.7259 13.19726646158845
ONEWEB-0531             
1 54146U 22138AK  26031.79450226 -.00000190  00000+0 -49843-3 0  9995
2 54146  87.9222 301.6538 0002437  93.8508 266.2904 13.20773000161300
ONEWEB-0535             
1 54147U 22138AL  26031.83650300 -.00000054  00000+0 -16653-3 0  9998
2 54147  87.9257 332.0890 0002167  82.1910 277.9469 13.19728691158851
ONEWEB-0536             
1 54148U 22138AM  26032.16066157  .00000127  00000+0  28091-3 0  9995
2 54148  87.9214 301.6192 0002423  97.2098 262.9311 13.20769707161344
ONEWEB-0527             
1 54642U 22166A   26032.06858154  .00000115  00000+0  24641-3 0  9994
2 54642  87.9198 271.1529 0001529  83.6713 276.4595 13.21825678153557
ONEWEB-0528             
1 54643U 22166B   26031.69667569  .00000020  00000+0  17495-4 0  9996
2 54643  87.9198 271.2311 0001489  82.3318 277.7985 13.21823983153510
ONEWEB-0539             
1 54644U 22166C   26031.65884337  .00000013  00000+0 -33256-6 0  9995
2 54644  87.9197 271.2038 0001495  73.0601 287.0697 13.21827270153501
