[{"OBJECT_NAME":"ONEWEB-0518","OBJECT_ID":"2022-138Z","EPOCH":"2026-01-31T19:50:55.482720","MEAN_MOTION":13.19724249,"ECCENTRICITY":0.00015904,"INCLINATION":87.9241,"RA_OF_ASC_NODE":332.1207,"ARG_OF_PERICENTER":78.8524,"MEAN_ANOMALY":281.2787,"EPHEMERIS_TYPE":0,"CLASSIFICATION_TYPE":"U","NORAD_CAT_ID":54136,"ELEMENT_SET_NO":999,"REV_AT_EPOCH":15884,"BSTAR":-0.00011302022,"MEAN_MOTION_DOT":-3.2e-7,"MEAN_MOTION_DDOT":0},{"OBJECT_NAME":"ONEWEB-0519","OBJECT_ID":"2022-138AA","EPOCH":"2026-02-01T01:54:52.190208","MEAN_MOTION":13.19726326,"ECCENTRICITY":0.00018882,"INCLINATION":87.9255,"RA_OF_ASC_NODE":332.046,"ARG_OF_PERICENTER":73.1346,"MEAN_ANOMALY":286.9994,"EPHEMERIS_TYPE":0,"CLASSIFICATION_TYPE":"U","NORAD_CAT_ID":54137,"ELEMENT_SET_NO":999,"REV_AT_EPOCH":15888,"BSTAR":0.00035740335,"MEAN_MOTION_DOT":1.56e-6,"MEAN_MOTION_DDOT":0},{"OBJECT_NAME":"ONEWEB-0520","OBJECT_ID":"2022-138AB","EPOCH":"2026-02-01T02:44:54.008736","MEAN_MOTION":13.19726907,"ECCENTRICITY":0.00014808,"INCLINATION":87.9258,"RA_OF_ASC_NODE":332.0451,"ARG_OF_PERICENTER":77.2694,"MEAN_ANOMALY":282.8604,"EPHEMERIS_TYPE":0,"CLASSIFICATION_TYPE":"U","NORAD_CAT_ID":54138,"ELEMENT_SET_NO":999,"REV_AT_EPOCH":15887,"BSTAR":-7.8680149e-5,"MEAN_MOTION_DOT":-1.9e-7,"MEAN_MOTION_DDOT":0},{"OBJECT_NAME":"ONEWEB-0521","OBJECT_ID":"2022-138AC","EPOCH":"2026-01-31T20:15:57.643488","MEAN_MOTION":13.19727445,"ECCENTRICITY":0.0001984,"INCLINATION":87.9256,"RA_OF_ASC_NODE":332.0822,"ARG_OF_PERICENTER":73.9185,"MEAN_ANOMALY":286.2166,"EPHEMERIS_TYPE":0,"CLASSIFICATION_TYPE":"U","NORAD_CAT_ID":54139,"ELEMENT_SET_NO":999,"REV_AT_EPOCH":15878,"BSTAR":-0.00018935205,"MEAN_MOTION_DOT":-6.3e-7,"MEAN_MOTION_DDOT":0},{"OBJECT_NAME":"ONEWEB-0522","OBJECT_ID":"2022-138AD","EPOCH":"2026-01-31T19:46:22.084608","MEAN_MOTION":13.19728422,"ECCENTRICITY":0.00016191,"INCLINATION":87.9254,"RA_OF_ASC_NODE":332.0878,"ARG_OF_PERICENTER":75.3128,"MEAN_ANOMALY":284.8184,"EPHEMERIS_TYPE":0,"CLASSIFICATION_TYPE":"U","NORAD_CAT_ID":54140,"ELEMENT_SET_NO":999,"REV_AT_EPOCH":15882,"BSTAR":-0.00015133854,"MEAN_MOTION_DOT":-4.8e-7,"MEAN_MOTION_DDOT":0},{"OBJECT_NAME":"ONEWEB-0523","OBJECT_ID":"2022-138AE","EPOCH":"2026-01-31T17:51:21.631104","MEAN_MOTION":13.20777291,"ECCENTRICITY":0.00023341,"INCLINATION":87.9223,"RA_OF_ASC_NODE":301.6671,"ARG_OF_PERICENTER":82.2481,"MEAN_ANOMALY":277.8917,"EPHEMERIS_TYPE":0,"CLASSIFICATION_TYPE":"U","NORAD_CAT_ID":54141,"ELEMENT_SET_NO":999,"REV_AT_EPOCH":16129,"BSTAR":-0.0040345522,"MEAN_MOTION_DOT":-1.627e-5,"MEAN_MOTION_DDOT":0},{"OBJECT_NAME":"ONEWEB-0524","OBJECT_ID":"2022-138AF","EPOCH":"2026-01-31T17:35:27.695616","MEAN_MOTION":13.2077333,"ECCENTRICITY":0.00019644,"INCLINATION":87.9222,"RA_OF_ASC_NODE":301.6705,"ARG_OF_PERICENTER":106.5073,"MEAN_ANOMALY":253.6276,"EPHEMERIS_TYPE":0,"CLASSIFICATION_TYPE":"U","NORAD_CAT_ID":54142,"ELEMENT_SET_NO":999,"REV_AT_EPOCH":16129,"BSTAR":-0.00024279129,"MEAN_MOTION_DOT":-8.6e-7,"MEAN_MOTION_DDOT":0},{"OBJECT_NAME":"ONEWEB-0525","OBJECT_ID":"2022-138AG","EPOCH":"2026-02-01T01:41:12.699168","MEAN_MOTION":13.19727783,"ECCENTRICITY":0.000151,"INCLINATION":87.925,"RA_OF_ASC_NODE":332.0558,"ARG_OF_PERICENTER":77.0336,"MEAN_ANOMALY":283.0965,"EPHEMERIS_TYPE":0,"CLASSIFICATION_TYPE":"U","NORAD_CAT_ID":54143,"ELEMENT_SET_NO":999,"REV_AT_EPOCH":15887,"BSTAR":0.00026022403,"MEAN_MOTION_DOT":1.17e-6,"MEAN_MOTION_DDOT":0},{"OBJECT_NAME":"ONEWEB-0526","OBJECT_ID":"2022-138AH","EPOCH":"2026-01-31T21:01:26.946048","MEAN_MOTION":13.19726717,"ECCENTRICITY":0.00016803,"INCLINATION":87.9256,"RA_OF_ASC_NODE":332.0866,"ARG_OF_PERICENTER":79.7642,"MEAN_ANOMALY":280.368,"EPHEMERIS_TYPE":0,"CLASSIFICATION_TYPE":"U","NORAD_CAT_ID":54144,"ELEMENT_SET_NO":999,"REV_AT_EPOCH":15882,"BSTAR":-0.00016374499,"MEAN_MOTION_DOT":-5.3e-7,"MEAN_MOTION_DDOT":0},{"OBJECT_NAME":"ONEWEB-0529","OBJECT_ID":"2022-138AJ","EPOCH":"2026-01-31T21:06:00.107424","MEAN_MOTION":13.19726646,"ECCENTRICITY":0.00015159,"INCLINATION":87.9246,"RA_OF_ASC_NODE":332.1078,"ARG_OF_PERICENTER":78.4044,"MEAN_ANOMALY":281.7259,"EPHEMERIS_TYPE":0,"CLASSIFICATION_TYPE":"U","NORAD_CAT_ID":54145,"ELEMENT_SET_NO":999,"REV_AT_EPOCH":15884,"BSTAR":-0.00020198222,"MEAN_MOTION_DOT":-6.8e-7,"MEAN_MOTION_DDOT":0},{"OBJECT_NAME":"ONEWEB-0531","OBJECT_ID":"2022-138AK","EPOCH":"2026-01-31T19:04:04.995264","MEAN_MOTION":13.20773,"ECCENTRICITY":0.00024377,"INCLINATION":87.9222,"RA_OF_ASC_NODE":301.6538,"ARG_OF_PERICENTER":93.8508,"MEAN_ANOMALY":266.2904,"EPHEMERIS_TYPE":0,"CLASSIFICATION_TYPE":"U","NORAD_CAT_ID":54146,"ELEMENT_SET_NO":999,"REV_AT_EPOCH":16130,"BSTAR":-0.00049842552,"MEAN_MOTION_DOT":-1.9e-6,"MEAN_MOTION_DDOT":0},{"OBJECT_NAME":"ONEWEB-0535","OBJECT_ID":"2022-138AL","EPOCH":"2026-01-31T20:04:33.859200","MEAN_MOTION":13.19728691,"ECCENTRICITY":0.00021672,"INCLINATION":87.9257,"RA_OF_ASC_NODE":332.089,"ARG_OF_PERICENTER":82.191,"MEAN_ANOMALY":277.9469,"EPHEMERIS_TYPE":0,"CLASSIFICATION_TYPE":"U","NORAD_CAT_ID":54147,"ELEMENT_SET_NO":999,"REV_AT_EPOCH":15885,"BSTAR":-0.00016652935,"MEAN_MOTION_DOT":-5.4e-7,"MEAN_MOTION_DDOT":0},{"OBJECT_NAME":"ONEWEB-0536","OBJECT_ID":"2022-138AM","EPOCH":"2026-02-01T03:51:21.159648","MEAN_MOTION":13.20769707,"ECCENTRICITY":0.00024233,"INCLINATION":87.9214,"RA_OF_ASC_NODE":301.6192,"ARG_OF_PERICENTER":97.2098,"MEAN_ANOMALY":262.9311,"EPHEMERIS_TYPE":0,"CLASSIFICATION_TYPE":"U","NORAD_CAT_ID":54148,"ELEMENT_SET_NO":999,"REV_AT_EPOCH":16134,"BSTAR":0.00028091373,"MEAN_MOTION_DOT":1.27e-6,"MEAN_MOTION_DDOT":0},{"OBJECT_NAME":"ONEWEB-0527","OBJECT_ID":"2022-166A","EPOCH":"2026-02-01T01:38:45.445056","MEAN_MOTION":13.21825678,"ECCENTRICITY":0.00015299,"INCLINATION":87.9198,"RA_OF_ASC_NODE":271.1529,"ARG_OF_PERICENTER":83.6713,"MEAN_ANOMALY":276.4595,"EPHEMERIS_TYPE":0,"CLASSIFICATION_TYPE":"U","NORAD_CAT_ID":54642,"ELEMENT_SET_NO":999,"REV_AT_EPOCH":15355,"BSTAR":0.00024640604,"MEAN_MOTION_DOT":1.15e-6,"MEAN_MOTION_DDOT":0},{"OBJECT_NAME":"ONEWEB-0528","OBJECT_ID":"2022-166B","EPOCH":"2026-01-31T16:43:12.779616","MEAN_MOTION":13.21823983,"ECCENTRICITY":0.00014896,"INCLINATION":87.9198,"RA_OF_ASC_NODE":271.2311,"ARG_OF_PERICENTER":82.3318,"MEAN_ANOMALY":277.7985,"EPHEMERIS_TYPE":0,"CLASSIFICATION_TYPE":"U","NORAD_CAT_ID":54643,"ELEMENT_SET_NO":999,"REV_AT_EPOCH":15351,"BSTAR":1.7495226e-5,"MEAN_MOTION_DOT":2.0e-7,"MEAN_MOTION_DDOT":0},{"OBJECT_NAME":"ONEWEB-0539","OBJECT_ID":"2022-166C","EPOCH":"2026-01-31T15:48:44.067168","MEAN_MOTION":13.2182727,"ECCENTRICITY":0.00014954,"INCLINATION":87.9197,"RA_OF_ASC_NODE":271.2038,"ARG_OF_PERICENTER":73.0601,"MEAN_ANOMALY":287.0697,"EPHEMERIS_TYPE":0,"CLASSIFICATION_TYPE":"U","NORAD_CAT_ID":54644,"ELEMENT_SET_NO":999,"REV_AT_EPOCH":15350,"BSTAR":-3.32559e-7,"MEAN_MOTION_DOT":1.3e-7,"MEAN_MOTION_DDOT":0}]
